[{"OBJECT_NAME":"SES-2","OBJECT_ID":"2011-049A","EPOCH":"2026-04-26T19:59:57.971040","MEAN_MOTION":1.00272515,"ECCENTRICITY":0.0002788,"INCLINATION":0.061,"RA_OF_ASC_NODE":76.679,"ARG_OF_PERICENTER":316.6334,"MEAN_ANOMALY":34.5094,"EPHEMERIS_TYPE":0,"CLASSIFICATION_TYPE":"U","NORAD_CAT_ID":37809,"ELEMENT_SET_NO":999,"REV_AT_EPOCH":5344,"BSTAR":0,"MEAN_MOTION_DOT":-2.07e-6,"MEAN_MOTION_DDOT":0},{"OBJECT_NAME":"QUETZSAT 1","OBJECT_ID":"2011-054A","EPOCH":"2026-04-26T20:02:50.193888","MEAN_MOTION":1.00272067,"ECCENTRICITY":0.0002567,"INCLINATION":0.054,"RA_OF_ASC_NODE":63.2751,"ARG_OF_PERICENTER":345.6492,"MEAN_ANOMALY":29.6153,"EPHEMERIS_TYPE":0,"CLASSIFICATION_TYPE":"U","NORAD_CAT_ID":37826,"ELEMENT_SET_NO":999,"REV_AT_EPOCH":4935,"BSTAR":0,"MEAN_MOTION_DOT":-2.53e-6,"MEAN_MOTION_DDOT":0},{"OBJECT_NAME":"SES-4","OBJECT_ID":"2012-007A","EPOCH":"2026-04-26T18:35:50.527968","MEAN_MOTION":1.0027136,"ECCENTRICITY":0.000272,"INCLINATION":0.0221,"RA_OF_ASC_NODE":42.4616,"ARG_OF_PERICENTER":11.0775,"MEAN_ANOMALY":58.2092,"EPHEMERIS_TYPE":0,"CLASSIFICATION_TYPE":"U","NORAD_CAT_ID":38087,"ELEMENT_SET_NO":999,"REV_AT_EPOCH":5171,"BSTAR":0,"MEAN_MOTION_DOT":-1.8e-6,"MEAN_MOTION_DDOT":0},{"OBJECT_NAME":"SES-5","OBJECT_ID":"2012-036A","EPOCH":"2026-04-26T17:00:50.692320","MEAN_MOTION":1.00271509,"ECCENTRICITY":0.0002088,"INCLINATION":0.0594,"RA_OF_ASC_NODE":300.4218,"ARG_OF_PERICENTER":91.2198,"MEAN_ANOMALY":83.2535,"EPHEMERIS_TYPE":0,"CLASSIFICATION_TYPE":"U","NORAD_CAT_ID":38652,"ELEMENT_SET_NO":999,"REV_AT_EPOCH":4394,"BSTAR":0,"MEAN_MOTION_DOT":2.2e-7,"MEAN_MOTION_DDOT":0},{"OBJECT_NAME":"ASTRA 2F","OBJECT_ID":"2012-051A","EPOCH":"2026-04-26T20:32:47.320800","MEAN_MOTION":1.00271906,"ECCENTRICITY":4.64e-5,"INCLINATION":0.0356,"RA_OF_ASC_NODE":249.7829,"ARG_OF_PERICENTER":18.0236,"MEAN_ANOMALY":283.443,"EPHEMERIS_TYPE":0,"CLASSIFICATION_TYPE":"U","NORAD_CAT_ID":38778,"ELEMENT_SET_NO":999,"REV_AT_EPOCH":4062,"BSTAR":0,"MEAN_MOTION_DOT":1.39e-6,"MEAN_MOTION_DDOT":0},{"OBJECT_NAME":"SES-6","OBJECT_ID":"2013-026A","EPOCH":"2026-04-26T18:30:28.542816","MEAN_MOTION":1.00271026,"ECCENTRICITY":0.0002423,"INCLINATION":0.0265,"RA_OF_ASC_NODE":351.7138,"ARG_OF_PERICENTER":49.2956,"MEAN_ANOMALY":50.8698,"EPHEMERIS_TYPE":0,"CLASSIFICATION_TYPE":"U","NORAD_CAT_ID":39172,"ELEMENT_SET_NO":999,"REV_AT_EPOCH":4721,"BSTAR":0,"MEAN_MOTION_DOT":-2.73e-6,"MEAN_MOTION_DDOT":0},{"OBJECT_NAME":"O3B FM5","OBJECT_ID":"2013-031A","EPOCH":"2026-04-26T16:02:12.213024","MEAN_MOTION":5.0011649,"ECCENTRICITY":0.000314,"INCLINATION":0.1023,"RA_OF_ASC_NODE":359.9231,"ARG_OF_PERICENTER":24.6234,"MEAN_ANOMALY":335.4669,"EPHEMERIS_TYPE":0,"CLASSIFICATION_TYPE":"U","NORAD_CAT_ID":39188,"ELEMENT_SET_NO":999,"REV_AT_EPOCH":23446,"BSTAR":0,"MEAN_MOTION_DOT":-2.7e-7,"MEAN_MOTION_DDOT":0},{"OBJECT_NAME":"O3B FM4","OBJECT_ID":"2013-031B","EPOCH":"2026-04-26T18:53:59.250048","MEAN_MOTION":5.00115192,"ECCENTRICITY":0.0005149,"INCLINATION":0.0493,"RA_OF_ASC_NODE":346,"ARG_OF_PERICENTER":48.9621,"MEAN_ANOMALY":325.0702,"EPHEMERIS_TYPE":0,"CLASSIFICATION_TYPE":"U","NORAD_CAT_ID":39189,"ELEMENT_SET_NO":999,"REV_AT_EPOCH":23447,"BSTAR":0,"MEAN_MOTION_DOT":-2.7e-7,"MEAN_MOTION_DDOT":0},{"OBJECT_NAME":"O3B FM2","OBJECT_ID":"2013-031C","EPOCH":"2026-04-26T15:40:35.959872","MEAN_MOTION":5.00115974,"ECCENTRICITY":0.0002788,"INCLINATION":0.0471,"RA_OF_ASC_NODE":339.2001,"ARG_OF_PERICENTER":54.2019,"MEAN_ANOMALY":326.6141,"EPHEMERIS_TYPE":0,"CLASSIFICATION_TYPE":"U","NORAD_CAT_ID":39190,"ELEMENT_SET_NO":999,"REV_AT_EPOCH":23453,"BSTAR":0,"MEAN_MOTION_DOT":-2.7e-7,"MEAN_MOTION_DDOT":0},{"OBJECT_NAME":"O3B PFM","OBJECT_ID":"2013-031D","EPOCH":"2026-04-23T11:15:27.446688","MEAN_MOTION":5.00115912,"ECCENTRICITY":0.0004841,"INCLINATION":0.07,"RA_OF_ASC_NODE":358.7224,"ARG_OF_PERICENTER":42.5713,"MEAN_ANOMALY":318.7416,"EPHEMERIS_TYPE":0,"CLASSIFICATION_TYPE":"U","NORAD_CAT_ID":39191,"ELEMENT_SET_NO":999,"REV_AT_EPOCH":23393,"BSTAR":0,"MEAN_MOTION_DOT":-2.6e-7,"MEAN_MOTION_DDOT":0},{"OBJECT_NAME":"ASTRA 2E","OBJECT_ID":"2013-056A","EPOCH":"2026-04-26T20:32:54.809088","MEAN_MOTION":1.00272577,"ECCENTRICITY":0.0002318,"INCLINATION":0.0622,"RA_OF_ASC_NODE":8.2523,"ARG_OF_PERICENTER":29.2986,"MEAN_ANOMALY":154.0488,"EPHEMERIS_TYPE":0,"CLASSIFICATION_TYPE":"U","NORAD_CAT_ID":39285,"ELEMENT_SET_NO":999,"REV_AT_EPOCH":4590,"BSTAR":0,"MEAN_MOTION_DOT":1.39e-6,"MEAN_MOTION_DDOT":0},{"OBJECT_NAME":"SES-8","OBJECT_ID":"2013-071A","EPOCH":"2026-04-26T21:12:21.502080","MEAN_MOTION":1.00271953,"ECCENTRICITY":0.0002437,"INCLINATION":0.0194,"RA_OF_ASC_NODE":260.0329,"ARG_OF_PERICENTER":153.3949,"MEAN_ANOMALY":214.5481,"EPHEMERIS_TYPE":0,"CLASSIFICATION_TYPE":"U","NORAD_CAT_ID":39460,"ELEMENT_SET_NO":999,"REV_AT_EPOCH":4391,"BSTAR":0,"MEAN_MOTION_DOT":-2.81e-6,"MEAN_MOTION_DDOT":0},{"OBJECT_NAME":"ASTRA 5B","OBJECT_ID":"2014-011B","EPOCH":"2026-04-26T20:31:24.953088","MEAN_MOTION":1.00269765,"ECCENTRICITY":0.0002683,"INCLINATION":0.0675,"RA_OF_ASC_NODE":307.7565,"ARG_OF_PERICENTER":65.8,"MEAN_ANOMALY":172.6426,"EPHEMERIS_TYPE":0,"CLASSIFICATION_TYPE":"U","NORAD_CAT_ID":39617,"ELEMENT_SET_NO":999,"REV_AT_EPOCH":4415,"BSTAR":0,"MEAN_MOTION_DOT":1.25e-6,"MEAN_MOTION_DDOT":0},{"OBJECT_NAME":"O3B FM3","OBJECT_ID":"2014-038A","EPOCH":"2026-04-26T17:36:54.152640","MEAN_MOTION":5.00115633,"ECCENTRICITY":0.0001411,"INCLINATION":0.0514,"RA_OF_ASC_NODE":355.2549,"ARG_OF_PERICENTER":106.0121,"MEAN_ANOMALY":258.7473,"EPHEMERIS_TYPE":0,"CLASSIFICATION_TYPE":"U","NORAD_CAT_ID":40079,"ELEMENT_SET_NO":999,"REV_AT_EPOCH":21046,"BSTAR":0,"MEAN_MOTION_DOT":-2.7e-7,"MEAN_MOTION_DDOT":0},{"OBJECT_NAME":"O3B FM7","OBJECT_ID":"2014-038B","EPOCH":"2026-04-26T01:55:45.576768","MEAN_MOTION":5.00115631,"ECCENTRICITY":0.0004216,"INCLINATION":0.0542,"RA_OF_ASC_NODE":347.5637,"ARG_OF_PERICENTER":28.9904,"MEAN_ANOMALY":343.458,"EPHEMERIS_TYPE":0,"CLASSIFICATION_TYPE":"U","NORAD_CAT_ID":40080,"ELEMENT_SET_NO":999,"REV_AT_EPOCH":21527,"BSTAR":0,"MEAN_MOTION_DOT":-2.7e-7,"MEAN_MOTION_DDOT":0},{"OBJECT_NAME":"O3B FM6","OBJECT_ID":"2014-038C","EPOCH":"2026-04-26T07:22:28.393248","MEAN_MOTION":5.00115694,"ECCENTRICITY":0.0002636,"INCLINATION":0.052,"RA_OF_ASC_NODE":352.0554,"ARG_OF_PERICENTER":41.7448,"MEAN_ANOMALY":326.215,"EPHEMERIS_TYPE":0,"CLASSIFICATION_TYPE":"U","NORAD_CAT_ID":40081,"ELEMENT_SET_NO":999,"REV_AT_EPOCH":21523,"BSTAR":0,"MEAN_MOTION_DOT":-2.7e-7,"MEAN_MOTION_DDOT":0},{"OBJECT_NAME":"O3B FM8","OBJECT_ID":"2014-038D","EPOCH":"2026-04-26T18:14:53.439936","MEAN_MOTION":5.00116025,"ECCENTRICITY":0.0002701,"INCLINATION":0.0524,"RA_OF_ASC_NODE":350.9925,"ARG_OF_PERICENTER":47.1419,"MEAN_ANOMALY":321.8832,"EPHEMERIS_TYPE":0,"CLASSIFICATION_TYPE":"U","NORAD_CAT_ID":40082,"ELEMENT_SET_NO":999,"REV_AT_EPOCH":21537,"BSTAR":0,"MEAN_MOTION_DOT":-2.7e-7,"MEAN_MOTION_DDOT":0}]
