SES-2                   
1 37809U 11049A   26116.83330985 -.00000207  00000+0  00000+0 0  9995
2 37809   0.0610  76.6790 0002788 316.6334  34.5094  1.00272515 53446
QUETZSAT 1              
1 37826U 11054A   26116.83530317 -.00000253  00000+0  00000+0 0  9992
2 37826   0.0540  63.2751 0002567 345.6492  29.6153  1.00272067 49356
SES-4                   
1 38087U 12007A   26116.77489037 -.00000180  00000+0  00000+0 0  9995
2 38087   0.0221  42.4616 0002720  11.0775  58.2092  1.00271360 51718
SES-5                   
1 38652U 12036A   26116.70892005  .00000022  00000+0  00000+0 0  9995
2 38652   0.0594 300.4218 0002088  91.2198  83.2535  1.00271509 43941
ASTRA 2F                
1 38778U 12051A   26116.85610325  .00000139  00000+0  00000+0 0  9999
2 38778   0.0356 249.7829 0000464  18.0236 283.4430  1.00271906 40626
SES-6                   
1 39172U 13026A   26116.77116369 -.00000273  00000+0  00000+0 0  9991
2 39172   0.0265 351.7138 0002423  49.2956  50.8698  1.00271026 47210
O3B FM5                 
1 39188U 13031A   26116.66819691 -.00000027  00000+0  00000+0 0  9997
2 39188   0.1023 359.9231 0003140  24.6234 335.4669  5.00116490234469
O3B FM4                 
1 39189U 13031B   26116.78749132 -.00000027  00000+0  00000+0 0  9993
2 39189   0.0493 346.0000 0005149  48.9621 325.0702  5.00115192234473
O3B FM2                 
1 39190U 13031C   26116.65319398 -.00000027  00000+0  00000+0 0  9998
2 39190   0.0471 339.2001 0002788  54.2019 326.6141  5.00115974234532
O3B PFM                 
1 39191U 13031D   26113.46906767 -.00000026  00000+0  00000+0 0  9996
2 39191   0.0700 358.7224 0004841  42.5713 318.7416  5.00115912233936
ASTRA 2E                
1 39285U 13056A   26116.85618992  .00000139  00000+0  00000+0 0  9997
2 39285   0.0622   8.2523 0002318  29.2986 154.0488  1.00272577 45908
SES-8                   
1 39460U 13071A   26116.88358220 -.00000281  00000+0  00000+0 0  9996
2 39460   0.0194 260.0329 0002437 153.3949 214.5481  1.00271953 43910
ASTRA 5B                
1 39617U 14011B   26116.85514992  .00000125  00000+0  00000+0 0  9998
2 39617   0.0675 307.7565 0002683  65.8000 172.6426  1.00269765 44155
O3B FM3                 
1 40079U 14038A   26116.73396010 -.00000027  00000+0  00000+0 0  9999
2 40079   0.0514 355.2549 0001411 106.0121 258.7473  5.00115633210466
O3B FM7                 
1 40080U 14038B   26116.08038862 -.00000027  00000+0  00000+0 0  9997
2 40080   0.0542 347.5637 0004216  28.9904 343.4580  5.00115631215271
O3B FM6                 
1 40081U 14038C   26116.30727307 -.00000027  00000+0  00000+0 0  9992
2 40081   0.0520 352.0554 0002636  41.7448 326.2150  5.00115694215234
O3B FM8                 
1 40082U 14038D   26116.76034074 -.00000027  00000+0  00000+0 0  9995
2 40082   0.0524 350.9925 0002701  47.1419 321.8832  5.00116025215371
